From: horizons@ssd.jpl.nasa.gov (Horizons Ephemeris System)
Subject: [Horizons] SMALL BODY #C(500@10)_T(Christensen (C/2014 W7)) (1/1)
Date: February 23, 2021 at 4:21:07 PM PST

Automated mail xmit by MAIL_REQUEST, PID= 22901 Tue Feb 23 16:21:06 2021
++++++++++++++++++++++++++++++++ (part 1 of 1)  +++++++++++++++++++++++++++++++
*******************************************************************************
JPL/HORIZONS               Christensen (C/2014 W7)         2021-Feb-23 16:21:06
Rec #:90004187 (+COV) Soln.date: 2015-Mar-03_13:44:24     # obs: 46 (2014-2015)

IAU76/J2000 helio. ecliptic osc. elements (au, days, deg., period=Julian yrs):

 EPOCH=  2457002.5 ! 2014-Dec-11.0000000 (TDB)    RMSW= n.a.
  EC= .8692679144849317   QR= 1.488254604156941   TP= 2457023.1215403387
  OM= 151.2607538133497   W= 33.23974388781362    IN= 98.31367352136922
  A= 11.38400415088156    MA= 359.4708453610631   ADIST= 21.27975369760618
  PER= 38.410572697255    N= .025660286           ANGMOM= .02869167
  DAN= 1.61082            DDN= 10.19185           L= 145.8474604
  B= 32.8460248           MOID= .59400398         TP= 2014-Dec-31.6215403387

Comet physical (GM= km^3/s^2; RAD= km):
  GM= n.a.                RAD= n.a.
  M1=  16.3     M2=  18.4     k1=  10.    k2=  5.      PHCOF=  .030

COMET comments 
1: soln ref.= JPL#10, data arc: 2014-11-22 to 2015-02-13
2: k1=10., k2=5., phase coef.=0.03;
*******************************************************************************


*******************************************************************************
Ephemeris / MAIL_REQUEST Tue Feb 23 16:21:06 2021 Pasadena, USA  / Horizons
*******************************************************************************
Target body name: Christensen (C/2014 W7)         {source: JPL#10}
Center body name: Sun (10)                        {source: DE431}
Center-site name: BODY CENTER
*******************************************************************************
Start time      : A.D. 1990-Jan-01 00:00:00.0000 TDB
Stop  time      : A.D. 2020-Dec-31 00:00:00.0000 TDB
Step-size       : 10080 minutes
*******************************************************************************
Center geodetic : 0.00000000,0.00000000,0.0000000 {E-lon(deg),Lat(deg),Alt(km)}
Center cylindric: 0.00000000,0.00000000,0.0000000 {E-lon(deg),Dxy(km),Dz(km)}
Center radii    : 696000.0 x 696000.0 x 696000.0 k{Equator, meridian, pole}    
Small perturbers: Yes                             {source: SB431-N16}
Output units    : AU-D
Output type     : GEOMETRIC cartesian states
Output format   : 6 (LT, range, and range-rate)
Reference frame : Ecliptic of J2000.0
*******************************************************************************
Initial IAU76/J2000 heliocentric ecliptic osculating elements (au, days, deg.):
 EPOCH=  2457002.5 ! 2014-Dec-11.0000000 (TDB)    RMSW= n.a.                  
  EC= .8692679144849317   QR= 1.488254604156941   TP= 2457023.1215403387      
  OM= 151.2607538133497   W= 33.23974388781362    IN= 98.31367352136922       
 Equivalent ICRF heliocentric equatorial cartesian coordinates (au, au/d):
  X=-1.228028943015023E+00  Y= 5.039820134525910E-01  Z= 7.253389486069830E-01
 VX= 8.321212167883726E-03 VY=-8.378740142762107E-03 VZ= 1.502682393113992E-02
Comet physical (GM= km^3/s^2; RAD= km):                                        
  GM= n.a.                RAD= n.a.                                           
  M1=  16.3     M2=  18.4     k1=  10.    k2=  5.      PHCOF=  .030           
*******************************************************************************
           JDTDB,            Calendar Date (TDB),                     LT,                     RG,                     RR,
**************************************************************************************************************************
$$SOE
2454542.500000000, A.D. 2008-Mar-17 00:00:00.0000,  8.554469467200361E-02,  1.481160473621411E+01, -3.175353957702254E-03,
2454549.500000000, A.D. 2008-Mar-24 00:00:00.0000,  8.541616317075197E-02,  1.478935019664283E+01, -3.183089532836033E-03,
2454556.500000000, A.D. 2008-Mar-31 00:00:00.0000,  8.528731849304755E-02,  1.476704143224966E+01, -3.190846751359772E-03,
2454563.500000000, A.D. 2008-Apr-07 00:00:00.0000,  8.515815976595949E-02,  1.474467829189133E+01, -3.198625491162739E-03,
2454570.500000000, A.D. 2008-Apr-14 00:00:00.0000,  8.502868612533215E-02,  1.472226062594391E+01, -3.206425395938486E-03,
2454577.500000000, A.D. 2008-Apr-21 00:00:00.0000,  8.489889673114852E-02,  1.469978828896297E+01, -3.214245598109850E-03,
2454584.500000000, A.D. 2008-Apr-28 00:00:00.0000,  8.476879078336226E-02,  1.467726114242479E+01, -3.222085216295033E-03,
2454591.500000000, A.D. 2008-May-05 00:00:00.0000,  8.463836748979804E-02,  1.465467904916845E+01, -3.229944900915693E-03,
2454598.500000000, A.D. 2008-May-12 00:00:00.0000,  8.450762601093620E-02,  1.463204186383563E+01, -3.237825963523112E-03,
2454605.500000000, A.D. 2008-May-19 00:00:00.0000,  8.437656547063542E-02,  1.460934943472716E+01, -3.245728848464593E-03,
2454612.500000000, A.D. 2008-May-26 00:00:00.0000,  8.424518498690613E-02,  1.458660160913129E+01, -3.253653517113716E-03,
2454619.500000000, A.D. 2008-Jun-02 00:00:00.0000,  8.411348368031553E-02,  1.456379823477894E+01, -3.261599921755018E-03,
2454626.500000000, A.D. 2008-Jun-09 00:00:00.0000,  8.398146067136625E-02,  1.454093915938987E+01, -3.269568116945357E-03,
2454633.500000000, A.D. 2008-Jun-16 00:00:00.0000,  8.384911507629601E-02,  1.451802422994538E+01, -3.277558255975089E-03,
2454640.500000000, A.D. 2008-Jun-23 00:00:00.0000,  8.371644600352876E-02,  1.449505329207386E+01, -3.285570567341954E-03,
2454647.500000000, A.D. 2008-Jun-30 00:00:00.0000,  8.358345255137296E-02,  1.447202618965227E+01, -3.293605312689431E-03,
2454654.500000000, A.D. 2008-Jul-07 00:00:00.0000,  8.345013380852240E-02,  1.444894276489282E+01, -3.301662677378367E-03,
2454661.500000000, A.D. 2008-Jul-14 00:00:00.0000,  8.331648886184147E-02,  1.442580285969098E+01, -3.309742510769842E-03,
2454668.500000000, A.D. 2008-Jul-21 00:00:00.0000,  8.318251681475079E-02,  1.440260631880885E+01, -3.317844191648549E-03,
2454675.500000000, A.D. 2008-Jul-28 00:00:00.0000,  8.304821678838996E-02,  1.437935299007646E+01, -3.325967772364065E-03,
2454682.500000000, A.D. 2008-Aug-04 00:00:00.0000,  8.291358786846073E-02,  1.435604271518798E+01, -3.334114819595999E-03,
2454689.500000000, A.D. 2008-Aug-11 00:00:00.0000,  8.277862907680344E-02,  1.433267532478032E+01, -3.342286614363426E-03,
2454696.500000000, A.D. 2008-Aug-18 00:00:00.0000,  8.264333940300184E-02,  1.430925064390533E+01, -3.350483551091362E-03,
2454703.500000000, A.D. 2008-Aug-25 00:00:00.0000,  8.250771782821975E-02,  1.428576849615698E+01, -3.358705734459132E-03,
2454710.500000000, A.D. 2008-Sep-01 00:00:00.0000,  8.237176333001617E-02,  1.426222870450511E+01, -3.366953254779515E-03,
2454717.500000000, A.D. 2008-Sep-08 00:00:00.0000,  8.223547488188004E-02,  1.423863109121484E+01, -3.375226221726690E-03,
2454724.500000000, A.D. 2008-Sep-15 00:00:00.0000,  8.209885145273871E-02,  1.421497547776147E+01, -3.383524747797692E-03,
2454731.500000000, A.D. 2008-Sep-22 00:00:00.0000,  8.196189200730987E-02,  1.419126168489142E+01, -3.391848923532457E-03,
2454738.500000000, A.D. 2008-Sep-29 00:00:00.0000,  8.182459550789022E-02,  1.416748953293195E+01, -3.400198763916979E-03,
2454745.500000000, A.D. 2008-Oct-06 00:00:00.0000,  8.168696092001131E-02,  1.414365884277038E+01, -3.408574054633085E-03,
2454752.500000000, A.D. 2008-Oct-13 00:00:00.0000,  8.154898722730461E-02,  1.411976943842797E+01, -3.416974074293102E-03,
2454759.500000000, A.D. 2008-Oct-20 00:00:00.0000,  8.141067345027755E-02,  1.409582115031084E+01, -3.425397901259895E-03,
2454766.500000000, A.D. 2008-Oct-27 00:00:00.0000,  8.127201862433607E-02,  1.407181381140469E+01, -3.433845938473165E-03,
2454773.500000000, A.D. 2008-Nov-03 00:00:00.0000,  8.113302174402198E-02,  1.404774724761984E+01, -3.442319457735572E-03,
2454780.500000000, A.D. 2008-Nov-10 00:00:00.0000,  8.099368176670989E-02,  1.402362127843130E+01, -3.450818914992659E-03,
2454787.500000000, A.D. 2008-Nov-17 00:00:00.0000,  8.085399764564209E-02,  1.399943572259859E+01, -3.459344176492201E-03,
2454794.500000000, A.D. 2008-Nov-24 00:00:00.0000,  8.071396834186469E-02,  1.397519040023242E+01, -3.467895038553313E-03,
2454801.500000000, A.D. 2008-Dec-01 00:00:00.0000,  8.057359282329547E-02,  1.395088513263330E+01, -3.476471371502458E-03,
2454808.500000000, A.D. 2008-Dec-08 00:00:00.0000,  8.043287006138992E-02,  1.392651974171426E+01, -3.485073128407896E-03,
2454815.500000000, A.D. 2008-Dec-15 00:00:00.0000,  8.029179902804735E-02,  1.390209404946519E+01, -3.493700331333287E-03,
2454822.500000000, A.D. 2008-Dec-22 00:00:00.0000,  8.015037869329319E-02,  1.387760787755151E+01, -3.502353043791242E-03,
2454829.500000000, A.D. 2008-Dec-29 00:00:00.0000,  8.000860802495800E-02,  1.385306104725863E+01, -3.511031288296343E-03,
2454836.500000000, A.D. 2009-Jan-05 00:00:00.0000,  7.986648599421860E-02,  1.382845338045134E+01, -3.519734826431585E-03,
2454843.500000000, A.D. 2009-Jan-12 00:00:00.0000,  7.972401159128642E-02,  1.380378470229017E+01, -3.528462973793610E-03,
2454850.500000000, A.D. 2009-Jan-19 00:00:00.0000,  7.958118383000323E-02,  1.377905484202711E+01, -3.537215534992829E-03,
2454857.500000000, A.D. 2009-Jan-26 00:00:00.0000,  7.943800169900010E-02,  1.375426362454905E+01, -3.545993909018584E-03,
2454864.500000000, A.D. 2009-Feb-02 00:00:00.0000,  7.929446412302152E-02,  1.372941086368129E+01, -3.554799514751092E-03,
2454871.500000000, A.D. 2009-Feb-09 00:00:00.0000,  7.915056998749810E-02,  1.370449636644211E+01, -3.563632927939399E-03,
2454878.500000000, A.D. 2009-Feb-16 00:00:00.0000,  7.900631816212859E-02,  1.367951993712592E+01, -3.572494442171458E-03,
2454885.500000000, A.D. 2009-Feb-23 00:00:00.0000,  7.886170750447166E-02,  1.365448137792513E+01, -3.581384384716002E-03,
